[{"OBJECT_NAME":"STARLINK-34211","OBJECT_ID":"2025-119Y","EPOCH":"2026-03-08T16:49:12.563904","MEAN_MOTION":15.27578031,"ECCENTRICITY":8.06e-5,"INCLINATION":42.999,"RA_OF_ASC_NODE":313.0169,"ARG_OF_PERICENTER":273.6098,"MEAN_ANOMALY":86.4661,"EPHEMERIS_TYPE":0,"CLASSIFICATION_TYPE":"U","NORAD_CAT_ID":64255,"ELEMENT_SET_NO":999,"REV_AT_EPOCH":4401,"BSTAR":0.0013204804,"MEAN_MOTION_DOT":0.00036251,"MEAN_MOTION_DDOT":0},{"OBJECT_NAME":"CZ-6A R\/B","OBJECT_ID":"2023-168B","EPOCH":"2026-03-09T21:13:08.722272","MEAN_MOTION":15.16100791,"ECCENTRICITY":0.00607667,"INCLINATION":97.7542,"RA_OF_ASC_NODE":104.7688,"ARG_OF_PERICENTER":339.2379,"MEAN_ANOMALY":20.6386,"EPHEMERIS_TYPE":0,"CLASSIFICATION_TYPE":"U","NORAD_CAT_ID":58200,"ELEMENT_SET_NO":999,"REV_AT_EPOCH":12979,"BSTAR":0.00029693841,"MEAN_MOTION_DOT":5.919e-5,"MEAN_MOTION_DDOT":0}]
